AQUA                    
1 27424U 02022A   26090.85316860  .00001389  00000+0  28673-3 0  9998
2 27424  98.4212  58.6282 0001244 116.7860 273.4354 14.62028904271978
CZ-4B R/B               
1 27432U 02024C   26090.88051701  .00000060  00000+0  53939-4 0  9991
2 27432  98.8790 144.1707 0049385 320.9294 212.1639 14.14551586232374
MIDORI II (ADEOS-II)    
1 27597U 02056A   26090.36504533  .00000407  00000+0  17777-3 0  9991
2 27597  98.7806  48.9976 0000606  20.0869 340.0336 14.29301765213395
H-2A R/B                
1 27601U 02056E   26090.90030056  .00000409  00000+0  15751-3 0  9993
2 27601  98.3241  50.4255 0071411  95.2984 330.1625 14.33776214217296
CZ-4B R/B               
1 28059U 03049C   26090.73295817  .00000492  00000+0  12422-3 0  9997
2 28059  98.6894  86.5059 0048454 163.1370 197.1450 14.55040371189802
CZ-2C R/B               
1 28222U 04012C   26090.14583233  .00079102  00000+0  73084-3 0  9992
2 28222  97.7178 157.5086 0013443 224.2126 135.8060 15.67204291207631
SL-16 R/B               
1 28353U 04021B   26090.51937117  .00000312  00000+0  18690-3 0  9991
2 28353  71.0010 186.6824 0005132 342.7540  17.3407 14.14596697125926
CZ-4B R/B               
1 28415U 04035C   26090.56770105  .00010377  00000+0  36106-3 0  9996
2 28415  97.3461 124.5493 0030101 249.6075 110.1932 15.29449768183259
CZ-2C R/B               
1 28480U 04046B   26090.50269677  .00000216  00000+0  94841-4 0  9993
2 28480  98.1978   4.1276 0140619  90.3664 271.3632 14.27000301111617
ARIANE 5 R/B            
1 28499U 04049H   26090.45973094  .00001183  00000+0  13670-3 0  9999
2 28499  98.2658 259.7367 0082885 280.6849  78.5040 14.85306977149029
CZ-2D R/B               
1 28738U 05024B   26090.75901601  .00055075  00000+0  62451-3 0  9997
2 28738  97.3567 106.7457 0001977 314.5126  45.5970 15.62213914143229
ALOS (DAICHI)           
1 28931U 06002A   26090.62740096  .00001847  00000+0  31708-3 0  9993
2 28931  98.1252  46.4788 0000949 110.8511 249.2797 14.69878685 76700
